[{"OBJECT_NAME":"STARLINK-34184","OBJECT_ID":"2025-102B","EPOCH":"2026-03-09T12:22:42.655872","MEAN_MOTION":14.98330419,"ECCENTRICITY":0.000347,"INCLINATION":70.0003,"RA_OF_ASC_NODE":114.9946,"ARG_OF_PERICENTER":269.9229,"MEAN_ANOMALY":90.1532,"EPHEMERIS_TYPE":0,"CLASSIFICATION_TYPE":"U","NORAD_CAT_ID":64023,"ELEMENT_SET_NO":999,"REV_AT_EPOCH":4593,"BSTAR":0.0001242141,"MEAN_MOTION_DOT":1.389e-5,"MEAN_MOTION_DDOT":0},{"OBJECT_NAME":"CZ-6A DEB","OBJECT_ID":"2024-140DR","EPOCH":"2026-03-09T19:52:08.590080","MEAN_MOTION":14.67947666,"ECCENTRICITY":0.01507927,"INCLINATION":88.8745,"RA_OF_ASC_NODE":272.0518,"ARG_OF_PERICENTER":194.3001,"MEAN_ANOMALY":165.3928,"EPHEMERIS_TYPE":0,"CLASSIFICATION_TYPE":"U","NORAD_CAT_ID":60712,"ELEMENT_SET_NO":999,"REV_AT_EPOCH":8418,"BSTAR":0.00048384555,"MEAN_MOTION_DOT":3.311e-5,"MEAN_MOTION_DDOT":0}]
